{
  "type": "FeatureCollection",
  "features": [
    {
      "type": "Feature",
      "properties": {
        "norad_id": 39227,
        "name": "ARIRANG-5 (KOMPSAT-5)",
        "group": "resource",
        "lat": 4.793028402148339,
        "lon": -175.56457551020202,
        "alt_km": 553.6523904791429,
        "timestamp": "2025-12-26T23:26:41.810549+00:00",
        "meta_object_name": "ARIRANG-5 (KOMPSAT-5)",
        "meta_object_id": "2013-042A",
        "meta_epoch": "2025-12-26T18:38:05.474400",
        "meta_mean_motion": 15.04491547,
        "meta_eccentricity": 0.0002952,
        "meta_inclination": 97.6166,
        "meta_ra_of_asc_node": 184.8808,
        "meta_arg_of_pericenter": 32.3974,
        "meta_mean_anomaly": 327.7433,
        "meta_ephemeris_type": 0,
        "meta_classification_type": "U",
        "meta_norad_cat_id": 39227,
        "meta_element_set_no": 999,
        "meta_rev_at_epoch": 67793,
        "meta_bstar": 0.00016381,
        "meta_mean_motion_dot": 2.232e-05,
        "meta_mean_motion_ddot": 0,
        "tle_line1": "1 39227U 13042A   25360.77645225  .00002232  00000+0  16381-3 0  9997",
        "tle_line2": "2 39227  97.6166 184.8808 0002952  32.3974 327.7433 15.04491547677934"
      },
      "geometry": {
        "type": "Point",
        "coordinates": [
          -175.56457551020202,
          4.793028402148339
        ]
      }
    },
    {
      "type": "Feature",
      "properties": {
        "norad_id": 39418,
        "name": "SKYSAT-A",
        "group": "resource",
        "lat": 22.766541747913195,
        "lon": 47.62164289642234,
        "alt_km": 545.0792886914123,
        "timestamp": "2025-12-26T23:26:41.810559+00:00",
        "meta_object_name": "SKYSAT-A",
        "meta_object_id": "2013-066C",
        "meta_epoch": "2025-12-26T16:59:19.383072",
        "meta_mean_motion": 15.11703125,
        "meta_eccentricity": 0.0021778,
        "meta_inclination": 97.4086,
        "meta_ra_of_asc_node": 50.4912,
        "meta_arg_of_pericenter": 186.7849,
        "meta_mean_anomaly": 173.309,
        "meta_ephemeris_type": 0,
        "meta_classification_type": "U",
        "meta_norad_cat_id": 39418,
        "meta_element_set_no": 999,
        "meta_rev_at_epoch": 66241,
        "meta_bstar": 0.0002293,
        "meta_mean_motion_dot": 3.862e-05,
        "meta_mean_motion_ddot": 0,
        "tle_line1": "1 39418U 13066C   25360.70786323  .00003862  00000+0  22930-3 0  9990",
        "tle_line2": "2 39418  97.4086  50.4912 0021778 186.7849 173.3090 15.11703125662418"
      },
      "geometry": {
        "type": "Point",
        "coordinates": [
          47.62164289642234,
          22.766541747913195
        ]
      }
    },
    {
      "type": "Feature",
      "properties": {
        "norad_id": 39419,
        "name": "DUBAISAT-2",
        "group": "resource",
        "lat": -0.057365595227270576,
        "lon": -9.046137107036989,
        "alt_km": 544.4231195470038,
        "timestamp": "2025-12-26T23:26:41.810567+00:00",
        "meta_object_name": "DUBAISAT-2",
        "meta_object_id": "2013-066D",
        "meta_epoch": "2025-12-26T18:40:09.135264",
        "meta_mean_motion": 15.0849041,
        "meta_eccentricity": 0.0009706,
        "meta_inclination": 97.4471,
        "meta_ra_of_asc_node": 350.7534,
        "meta_arg_of_pericenter": 266.1212,
        "meta_mean_anomaly": 93.8907,
        "meta_ephemeris_type": 0,
        "meta_classification_type": "U",
        "meta_norad_cat_id": 39419,
        "meta_element_set_no": 999,
        "meta_rev_at_epoch": 66038,
        "meta_bstar": 0.0002797,
        "meta_mean_motion_dot": 4.303e-05,
        "meta_mean_motion_ddot": 0,
        "tle_line1": "1 39419U 13066D   25360.77788351  .00004303  00000+0  27970-3 0  9991",
        "tle_line2": "2 39419  97.4471 350.7534 0009706 266.1212  93.8907 15.08490410660380"
      },
      "geometry": {
        "type": "Point",
        "coordinates": [
          -9.046137107036989,
          -0.057365595227270576
        ]
      }
    },
    {
      "type": "Feature",
      "properties": {
        "norad_id": 39574,
        "name": "GPM-CORE",
        "group": "resource",
        "lat": -45.034844222022194,
        "lon": 12.893488389181337,
        "alt_km": 432.27094945787667,
        "timestamp": "2025-12-26T23:26:41.810576+00:00",
        "meta_object_name": "GPM-CORE",
        "meta_object_id": "2014-009C",
        "meta_epoch": "2025-12-26T17:47:06.598176",
        "meta_mean_motion": 15.44687382,
        "meta_eccentricity": 0.000902,
        "meta_inclination": 64.9729,
        "meta_ra_of_asc_node": 165.7924,
        "meta_arg_of_pericenter": 251.6671,
        "meta_mean_anomaly": 108.3489,
        "meta_ephemeris_type": 0,
        "meta_classification_type": "U",
        "meta_norad_cat_id": 39574,
        "meta_element_set_no": 999,
        "meta_rev_at_epoch": 67117,
        "meta_bstar": 0.00020438,
        "meta_mean_motion_dot": 9.357e-05,
        "meta_mean_motion_ddot": 0,
        "tle_line1": "1 39574U 14009C   25360.74104859  .00009357  00000+0  20438-3 0  9999",
        "tle_line2": "2 39574  64.9729 165.7924 0009020 251.6671 108.3489 15.44687382671173"
      },
      "geometry": {
        "type": "Point",
        "coordinates": [
          12.893488389181337,
          -45.034844222022194
        ]
      }
    },
    {
      "type": "Feature",
      "properties": {
        "norad_id": 39634,
        "name": "SENTINEL-1A",
        "group": "resource",
        "lat": -11.016308488949884,
        "lon": 7.612215486949424,
        "alt_km": 700.1570551123823,
        "timestamp": "2025-12-26T23:26:41.810593+00:00",
        "meta_object_name": "SENTINEL-1A",
        "meta_object_id": "2014-016A",
        "meta_epoch": "2025-12-26T18:33:31.283136",
        "meta_mean_motion": 14.59198951,
        "meta_eccentricity": 0.0001273,
        "meta_inclination": 98.1805,
        "meta_ra_of_asc_node": 5.8069,
        "meta_arg_of_pericenter": 85.6362,
        "meta_mean_anomaly": 274.4983,
        "meta_ephemeris_type": 0,
        "meta_classification_type": "U",
        "meta_norad_cat_id": 39634,
        "meta_element_set_no": 999,
        "meta_rev_at_epoch": 62487,
        "meta_bstar": -3.3418e-05,
        "meta_mean_motion_dot": -2.03e-06,
        "meta_mean_motion_ddot": 0,
        "tle_line1": "1 39634U 14016A   25360.77327874 -.00000203  00000+0 -33418-4 0  9997",
        "tle_line2": "2 39634  98.1805   5.8069 0001273  85.6362 274.4983 14.59198951624875"
      },
      "geometry": {
        "type": "Point",
        "coordinates": [
          7.612215486949424,
          -11.016308488949884
        ]
      }
    },
    {
      "type": "Feature",
      "properties": {
        "norad_id": 39731,
        "name": "KAZEOSAT 1",
        "group": "resource",
        "lat": 12.990594584581414,
        "lon": -105.49679408919027,
        "alt_km": 752.5148146229585,
        "timestamp": "2025-12-26T23:26:41.810607+00:00",
        "meta_object_name": "KAZEOSAT 1",
        "meta_object_id": "2014-024A",
        "meta_epoch": "2025-12-26T17:40:42.774816",
        "meta_mean_motion": 14.42070719,
        "meta_eccentricity": 0.0001232,
        "meta_inclination": 98.3412,
        "meta_ra_of_asc_node": 72.3288,
        "meta_arg_of_pericenter": 95.2569,
        "meta_mean_anomaly": 264.8761,
        "meta_ephemeris_type": 0,
        "meta_classification_type": "U",
        "meta_norad_cat_id": 39731,
        "meta_element_set_no": 999,
        "meta_rev_at_epoch": 61370,
        "meta_bstar": 0.00011509,
        "meta_mean_motion_dot": 3.35e-06,
        "meta_mean_motion_ddot": 0,
        "tle_line1": "1 39731U 14024A   25360.73660619  .00000335  00000+0  11509-3 0  9997",
        "tle_line2": "2 39731  98.3412  72.3288 0001232  95.2569 264.8761 14.42070719613702"
      },
      "geometry": {
        "type": "Point",
        "coordinates": [
          -105.49679408919027,
          12.990594584581414
        ]
      }
    },
    {
      "type": "Feature",
      "properties": {
        "norad_id": 39766,
        "name": "ALOS-2",
        "group": "resource",
        "lat": 14.978322600792893,
        "lon": -82.24549415171396,
        "alt_km": 631.4539688253053,
        "timestamp": "2025-12-26T23:26:41.810620+00:00",
        "meta_object_name": "ALOS-2",
        "meta_object_id": "2014-029A",
        "meta_epoch": "2025-12-26T17:49:59.532960",
        "meta_mean_motion": 14.79476014,
        "meta_eccentricity": 0.0001374,
        "meta_inclination": 97.9215,
        "meta_ra_of_asc_node": 95.3892,
        "meta_arg_of_pericenter": 99.9103,
        "meta_mean_anomaly": 260.2264,
        "meta_ephemeris_type": 0,
        "meta_classification_type": "U",
        "meta_norad_cat_id": 39766,
        "meta_element_set_no": 999,
        "meta_rev_at_epoch": 62608,
        "meta_bstar": 0.00034107,
        "meta_mean_motion_dot": 2.497e-05,
        "meta_mean_motion_ddot": 0,
        "tle_line1": "1 39766U 14029A   25360.74305015  .00002497  00000+0  34107-3 0  9997",
        "tle_line2": "2 39766  97.9215  95.3892 0001374  99.9103 260.2264 14.79476014626085"
      },
      "geometry": {
        "type": "Point",
        "coordinates": [
          -82.24549415171396,
          14.978322600792893
        ]
      }
    }
  ]
}